[{"OBJECT_NAME":"FENGYUN 1C DEB","OBJECT_ID":"1999-025DXR","EPOCH":"2026-02-21T02:38:34.801728","MEAN_MOTION":13.89651416,"ECCENTRICITY":0.02386406,"INCLINATION":96.1181,"RA_OF_ASC_NODE":173.8138,"ARG_OF_PERICENTER":96.4385,"MEAN_ANOMALY":266.4012,"EPHEMERIS_TYPE":0,"CLASSIFICATION_TYPE":"U","NORAD_CAT_ID":36647,"ELEMENT_SET_NO":999,"REV_AT_EPOCH":31389,"BSTAR":0.0021723362,"MEAN_MOTION_DOT":3.328e-5,"MEAN_MOTION_DDOT":0},{"OBJECT_NAME":"FENGYUN 1C DEB","OBJECT_ID":"1999-025DXW","EPOCH":"2026-03-09T11:03:16.048224","MEAN_MOTION":14.23657316,"ECCENTRICITY":0.00532705,"INCLINATION":98.9328,"RA_OF_ASC_NODE":156.9615,"ARG_OF_PERICENTER":106.533,"MEAN_ANOMALY":254.1709,"EPHEMERIS_TYPE":0,"CLASSIFICATION_TYPE":"U","NORAD_CAT_ID":36652,"ELEMENT_SET_NO":999,"REV_AT_EPOCH":65558,"BSTAR":0.0019409561,"MEAN_MOTION_DOT":4.449e-5,"MEAN_MOTION_DDOT":0},{"OBJECT_NAME":"FENGYUN 1C DEB","OBJECT_ID":"1999-025DYA","EPOCH":"2026-03-03T13:02:48.458688","MEAN_MOTION":13.5473356,"ECCENTRICITY":0.0331849,"INCLINATION":97.4269,"RA_OF_ASC_NODE":178.7258,"ARG_OF_PERICENTER":305.941,"MEAN_ANOMALY":51.1363,"EPHEMERIS_TYPE":0,"CLASSIFICATION_TYPE":"U","NORAD_CAT_ID":36656,"ELEMENT_SET_NO":999,"REV_AT_EPOCH":59939,"BSTAR":0.0010223,"MEAN_MOTION_DOT":9.66e-6,"MEAN_MOTION_DDOT":0},{"OBJECT_NAME":"FENGYUN 1C DEB","OBJECT_ID":"1999-025DYB","EPOCH":"2026-03-04T22:10:33.898944","MEAN_MOTION":14.66370182,"ECCENTRICITY":0.01040693,"INCLINATION":99.4227,"RA_OF_ASC_NODE":231.8194,"ARG_OF_PERICENTER":177.2125,"MEAN_ANOMALY":182.9676,"EPHEMERIS_TYPE":0,"CLASSIFICATION_TYPE":"U","NORAD_CAT_ID":36657,"ELEMENT_SET_NO":999,"REV_AT_EPOCH":67460,"BSTAR":0.0012550322,"MEAN_MOTION_DOT":7.456e-5,"MEAN_MOTION_DDOT":0},{"OBJECT_NAME":"FENGYUN 1C DEB","OBJECT_ID":"1999-025DYD","EPOCH":"2026-02-28T06:22:03.155520","MEAN_MOTION":13.87531043,"ECCENTRICITY":0.0134677,"INCLINATION":99.8544,"RA_OF_ASC_NODE":71.9562,"ARG_OF_PERICENTER":230.3601,"MEAN_ANOMALY":128.5606,"EPHEMERIS_TYPE":0,"CLASSIFICATION_TYPE":"U","NORAD_CAT_ID":36659,"ELEMENT_SET_NO":999,"REV_AT_EPOCH":61500,"BSTAR":0.00063028,"MEAN_MOTION_DOT":7.5e-6,"MEAN_MOTION_DDOT":0},{"OBJECT_NAME":"FENGYUN 1C DEB","OBJECT_ID":"1999-025DYJ","EPOCH":"2026-03-07T20:34:30.758016","MEAN_MOTION":14.18003801,"ECCENTRICITY":0.01718615,"INCLINATION":98.597,"RA_OF_ASC_NODE":93.8532,"ARG_OF_PERICENTER":214.1049,"MEAN_ANOMALY":144.899,"EPHEMERIS_TYPE":0,"CLASSIFICATION_TYPE":"U","NORAD_CAT_ID":36664,"ELEMENT_SET_NO":999,"REV_AT_EPOCH":64957,"BSTAR":9.7492306e-5,"MEAN_MOTION_DOT":1.87e-6,"MEAN_MOTION_DDOT":0},{"OBJECT_NAME":"FENGYUN 1C DEB","OBJECT_ID":"1999-025DYN","EPOCH":"2026-03-10T06:28:45.578208","MEAN_MOTION":14.15638275,"ECCENTRICITY":0.00506369,"INCLINATION":98.6015,"RA_OF_ASC_NODE":81.6312,"ARG_OF_PERICENTER":337.2979,"MEAN_ANOMALY":22.5956,"EPHEMERIS_TYPE":0,"CLASSIFICATION_TYPE":"U","NORAD_CAT_ID":36668,"ELEMENT_SET_NO":999,"REV_AT_EPOCH":58656,"BSTAR":0.00075068422,"MEAN_MOTION_DOT":1.446e-5,"MEAN_MOTION_DDOT":0},{"OBJECT_NAME":"FENGYUN 1C DEB","OBJECT_ID":"1999-025DYY","EPOCH":"2026-03-05T04:36:21.516480","MEAN_MOTION":14.38220926,"ECCENTRICITY":0.01519576,"INCLINATION":98.3039,"RA_OF_ASC_NODE":48.797,"ARG_OF_PERICENTER":104.4717,"MEAN_ANOMALY":257.3386,"EPHEMERIS_TYPE":0,"CLASSIFICATION_TYPE":"U","NORAD_CAT_ID":36678,"ELEMENT_SET_NO":999,"REV_AT_EPOCH":66174,"BSTAR":0.00033755967,"MEAN_MOTION_DOT":1.128e-5,"MEAN_MOTION_DDOT":0},{"OBJECT_NAME":"FENGYUN 1C DEB","OBJECT_ID":"1999-025DYZ","EPOCH":"2026-02-27T16:59:44.068416","MEAN_MOTION":14.04807871,"ECCENTRICITY":0.00843824,"INCLINATION":98.8403,"RA_OF_ASC_NODE":57.8137,"ARG_OF_PERICENTER":238.2675,"MEAN_ANOMALY":121.0249,"EPHEMERIS_TYPE":0,"CLASSIFICATION_TYPE":"U","NORAD_CAT_ID":36679,"ELEMENT_SET_NO":999,"REV_AT_EPOCH":25629,"BSTAR":0.00065864724,"MEAN_MOTION_DOT":1.047e-5,"MEAN_MOTION_DDOT":0},{"OBJECT_NAME":"FENGYUN 1C DEB","OBJECT_ID":"1999-025DZA","EPOCH":"2026-03-08T04:56:25.078848","MEAN_MOTION":14.18862622,"ECCENTRICITY":0.01891146,"INCLINATION":98.5564,"RA_OF_ASC_NODE":61.345,"ARG_OF_PERICENTER":2.8411,"MEAN_ANOMALY":54.9364,"EPHEMERIS_TYPE":0,"CLASSIFICATION_TYPE":"U","NORAD_CAT_ID":36680,"ELEMENT_SET_NO":999,"REV_AT_EPOCH":65509,"BSTAR":0.0010351451,"MEAN_MOTION_DOT":2.53e-5,"MEAN_MOTION_DDOT":0},{"OBJECT_NAME":"FENGYUN 1C DEB","OBJECT_ID":"1999-025DZB","EPOCH":"2026-03-10T05:18:38.984256","MEAN_MOTION":14.10490927,"ECCENTRICITY":0.0045549,"INCLINATION":98.703,"RA_OF_ASC_NODE":70.0072,"ARG_OF_PERICENTER":100.2948,"MEAN_ANOMALY":260.3363,"EPHEMERIS_TYPE":0,"CLASSIFICATION_TYPE":"U","NORAD_CAT_ID":36681,"ELEMENT_SET_NO":999,"REV_AT_EPOCH":73991,"BSTAR":0.00073246329,"MEAN_MOTION_DOT":1.274e-5,"MEAN_MOTION_DDOT":0},{"OBJECT_NAME":"FENGYUN 1C DEB","OBJECT_ID":"1999-025DZC","EPOCH":"2026-03-08T10:19:20.502624","MEAN_MOTION":13.70364287,"ECCENTRICITY":0.02346385,"INCLINATION":98.482,"RA_OF_ASC_NODE":326.2471,"ARG_OF_PERICENTER":47.9336,"MEAN_ANOMALY":314.1515,"EPHEMERIS_TYPE":0,"CLASSIFICATION_TYPE":"U","NORAD_CAT_ID":36682,"ELEMENT_SET_NO":999,"REV_AT_EPOCH":62566,"BSTAR":0.001889127,"MEAN_MOTION_DOT":1.992e-5,"MEAN_MOTION_DDOT":0},{"OBJECT_NAME":"FENGYUN 1C DEB","OBJECT_ID":"1999-025DZE","EPOCH":"2026-02-28T06:22:54.338880","MEAN_MOTION":15.08907087,"ECCENTRICITY":0.00232464,"INCLINATION":99.4552,"RA_OF_ASC_NODE":173.2368,"ARG_OF_PERICENTER":218.3208,"MEAN_ANOMALY":141.6363,"EPHEMERIS_TYPE":0,"CLASSIFICATION_TYPE":"U","NORAD_CAT_ID":36684,"ELEMENT_SET_NO":999,"REV_AT_EPOCH":67065,"BSTAR":0.0055309563,"MEAN_MOTION_DOT":0.00088715,"MEAN_MOTION_DDOT":0},{"OBJECT_NAME":"FENGYUN 1C DEB","OBJECT_ID":"1999-025DZG","EPOCH":"2026-02-24T08:24:33.782400","MEAN_MOTION":14.7853018,"ECCENTRICITY":0.01019027,"INCLINATION":99.0018,"RA_OF_ASC_NODE":260.336,"ARG_OF_PERICENTER":182.3725,"MEAN_ANOMALY":177.7013,"EPHEMERIS_TYPE":0,"CLASSIFICATION_TYPE":"U","NORAD_CAT_ID":36686,"ELEMENT_SET_NO":999,"REV_AT_EPOCH":66939,"BSTAR":0.00093391276,"MEAN_MOTION_DOT":7.381e-5,"MEAN_MOTION_DDOT":0},{"OBJECT_NAME":"FENGYUN 1C DEB","OBJECT_ID":"1999-025DZH","EPOCH":"2026-02-26T00:27:29.433888","MEAN_MOTION":14.04597085,"ECCENTRICITY":0.00917245,"INCLINATION":98.7066,"RA_OF_ASC_NODE":145.4324,"ARG_OF_PERICENTER":54.7113,"MEAN_ANOMALY":306.2592,"EPHEMERIS_TYPE":0,"CLASSIFICATION_TYPE":"U","NORAD_CAT_ID":36687,"ELEMENT_SET_NO":999,"REV_AT_EPOCH":63779,"BSTAR":0.00027763438,"MEAN_MOTION_DOT":4.19e-6,"MEAN_MOTION_DDOT":0},{"OBJECT_NAME":"FENGYUN 1C DEB","OBJECT_ID":"1999-025DZK","EPOCH":"2026-03-08T15:41:58.738848","MEAN_MOTION":13.74834328,"ECCENTRICITY":0.03095702,"INCLINATION":98.4791,"RA_OF_ASC_NODE":317.0759,"ARG_OF_PERICENTER":64.2688,"MEAN_ANOMALY":299.0076,"EPHEMERIS_TYPE":0,"CLASSIFICATION_TYPE":"U","NORAD_CAT_ID":36689,"ELEMENT_SET_NO":999,"REV_AT_EPOCH":59393,"BSTAR":0.0030403019,"MEAN_MOTION_DOT":4.067e-5,"MEAN_MOTION_DDOT":0},{"OBJECT_NAME":"FENGYUN 1C DEB","OBJECT_ID":"1999-025DZN","EPOCH":"2026-03-08T05:39:35.579808","MEAN_MOTION":13.9359767,"ECCENTRICITY":0.01144261,"INCLINATION":99.9938,"RA_OF_ASC_NODE":345.1482,"ARG_OF_PERICENTER":146.5859,"MEAN_ANOMALY":214.2587,"EPHEMERIS_TYPE":0,"CLASSIFICATION_TYPE":"U","NORAD_CAT_ID":36692,"ELEMENT_SET_NO":999,"REV_AT_EPOCH":60996,"BSTAR":0.00036457695,"MEAN_MOTION_DOT":4.55e-6,"MEAN_MOTION_DDOT":0},{"OBJECT_NAME":"FENGYUN 1C DEB","OBJECT_ID":"1999-025DZR","EPOCH":"2026-03-05T18:23:02.039712","MEAN_MOTION":14.44079976,"ECCENTRICITY":0.0254198,"INCLINATION":98.2326,"RA_OF_ASC_NODE":48.4457,"ARG_OF_PERICENTER":237.9608,"MEAN_ANOMALY":119.6665,"EPHEMERIS_TYPE":0,"CLASSIFICATION_TYPE":"U","NORAD_CAT_ID":36695,"ELEMENT_SET_NO":999,"REV_AT_EPOCH":90766,"BSTAR":0.00026075166,"MEAN_MOTION_DOT":1.268e-5,"MEAN_MOTION_DDOT":0},{"OBJECT_NAME":"FENGYUN 1C DEB","OBJECT_ID":"1999-025DZS","EPOCH":"2026-03-09T00:12:41.147712","MEAN_MOTION":14.40465561,"ECCENTRICITY":0.00240945,"INCLINATION":98.9899,"RA_OF_ASC_NODE":86.2407,"ARG_OF_PERICENTER":75.4654,"MEAN_ANOMALY":284.9204,"EPHEMERIS_TYPE":0,"CLASSIFICATION_TYPE":"U","NORAD_CAT_ID":36696,"ELEMENT_SET_NO":999,"REV_AT_EPOCH":65637,"BSTAR":0.0024491246,"MEAN_MOTION_DOT":7.774e-5,"MEAN_MOTION_DDOT":0},{"OBJECT_NAME":"FENGYUN 1C DEB","OBJECT_ID":"1999-025DZV","EPOCH":"2026-03-06T05:12:01.884672","MEAN_MOTION":14.24432559,"ECCENTRICITY":0.00926301,"INCLINATION":98.5661,"RA_OF_ASC_NODE":62.6038,"ARG_OF_PERICENTER":247.0403,"MEAN_ANOMALY":112.0982,"EPHEMERIS_TYPE":0,"CLASSIFICATION_TYPE":"U","NORAD_CAT_ID":36699,"ELEMENT_SET_NO":999,"REV_AT_EPOCH":74515,"BSTAR":0.00031132783,"MEAN_MOTION_DOT":7.1e-6,"MEAN_MOTION_DDOT":0},{"OBJECT_NAME":"FENGYUN 1C DEB","OBJECT_ID":"1999-025DZX","EPOCH":"2026-03-10T03:52:36.378624","MEAN_MOTION":13.71790894,"ECCENTRICITY":0.02594892,"INCLINATION":102.7521,"RA_OF_ASC_NODE":56.8916,"ARG_OF_PERICENTER":53.734,"MEAN_ANOMALY":308.7471,"EPHEMERIS_TYPE":0,"CLASSIFICATION_TYPE":"U","NORAD_CAT_ID":36701,"ELEMENT_SET_NO":999,"REV_AT_EPOCH":62337,"BSTAR":0.003478918,"MEAN_MOTION_DOT":3.935e-5,"MEAN_MOTION_DDOT":0},{"OBJECT_NAME":"FENGYUN 1C DEB","OBJECT_ID":"1999-025EAD","EPOCH":"2026-03-07T20:16:09.200352","MEAN_MOTION":14.17614983,"ECCENTRICITY":0.00484309,"INCLINATION":98.7415,"RA_OF_ASC_NODE":116.6329,"ARG_OF_PERICENTER":235.8517,"MEAN_ANOMALY":123.8061,"EPHEMERIS_TYPE":0,"CLASSIFICATION_TYPE":"U","NORAD_CAT_ID":36707,"ELEMENT_SET_NO":999,"REV_AT_EPOCH":65285,"BSTAR":0.00090454202,"MEAN_MOTION_DOT":1.817e-5,"MEAN_MOTION_DDOT":0},{"OBJECT_NAME":"FENGYUN 1C DEB","OBJECT_ID":"1999-025EAG","EPOCH":"2026-02-25T09:09:33.732288","MEAN_MOTION":14.50736676,"ECCENTRICITY":0.0064316,"INCLINATION":98.3702,"RA_OF_ASC_NODE":118.1006,"ARG_OF_PERICENTER":314.0767,"MEAN_ANOMALY":45.5143,"EPHEMERIS_TYPE":0,"CLASSIFICATION_TYPE":"U","NORAD_CAT_ID":36710,"ELEMENT_SET_NO":999,"REV_AT_EPOCH":66035,"BSTAR":0.0010875,"MEAN_MOTION_DOT":4.346e-5,"MEAN_MOTION_DDOT":0}]
